{"type":"FeatureCollection","features":[{"type":"Feature","geometry":{"type":"Polygon","coordinates":[[[102.39583128700889,5.437499142954592],[102.39940307276146,5.438417764453595],[102.39964831260428,5.460757871506005],[102.39201876178686,5.468409669075491],[102.3913142162747,5.473256689808806],[102.38785397298635,5.4767437019767105],[102.38714499509518,5.48504659971763],[102.3913142162747,5.489242556921415],[102.39201876178686,5.494089647652006],[102.39547904550332,5.497576667940985],[102.39618798838887,5.501714657637838],[102.39201876178686,5.505910712324134],[102.3913142162747,5.5183783559956625],[102.39547904550332,5.522574332213211],[102.39618798838887,5.527425887522069],[102.39964831260428,5.530908436105018],[102.40035282275423,5.535759913275548],[102.4038130998356,5.539242482642219],[102.40416536736028,5.554167092695199],[102.40059806466134,5.555081190416571],[102.4000005671294,5.579164816756138],[102.39387819210236,5.57556634458331],[102.3800683989653,5.574340088897858],[102.37831592791369,5.567517625030824],[102.37279111989892,5.56609961737669],[102.36887606110163,5.5630674236393824],[102.35416541401729,5.562501189142085],[102.35331375983858,5.565814273883941],[102.34778895784642,5.567232293581683],[102.34387826624054,5.57026445223684],[102.33723422224047,5.571972266410085],[102.34119842325052,5.577082418004457],[102.33806810315652,5.581122364797939],[102.3365832349576,5.586905845170352],[102.28945501393645,5.588065196743421],[102.285544354908,5.591097334850674],[102.2644572550765,5.592234439391226],[102.25833487027522,5.59583295459041],[102.24757512601457,5.595480623836574],[102.2440925277104,5.592020425438368],[102.22328635562829,5.591311419834413],[102.21875147379419,5.595819544320367],[102.21492553029847,5.592020408343841],[102.20590926832845,5.591311413561544],[102.19825744474858,5.583686300698243],[102.18090707712214,5.582981831080652],[102.1774244879788,5.57952151192524],[102.17257747510592,5.578812551799192],[102.16875156515451,5.575013411076579],[102.16492570127834,5.578812521424634],[102.16249987027827,5.579164798663568],[102.16214766902783,5.585759853414923],[102.15868739767949,5.5892423757177925],[102.15833512143104,5.591668138001703],[102.14757527630731,5.591311385227276],[102.14202373798534,5.5857910242978726],[102.14166697952014,5.583334055431862],[102.12695637272856,5.583900364757895],[102.12304580339831,5.586932545945968],[102.11175531001125,5.588065152516476],[102.10637763435919,5.5839003561202745],[102.1012140248662,5.582767748313469],[102.09914945177127,5.590816429240577],[102.09583189959488,5.591668167652332],[102.08924130134852,5.591311379789045],[102.08158952061284,5.583686304204482],[102.07674248583854,5.582981781507905],[102.07325990283641,5.579521564106974],[102.05590958769471,5.578812550345195],[102.05035348202877,5.573287737289565],[102.04964448875324,5.564240180084758],[102.04201946591787,5.556592816569179],[102.04166721823745,5.5458330049096185],[102.03834959287815,5.54498132472001],[102.03693159398493,5.539456490581432],[102.03389941146348,5.535545861946201],[102.03333308699558,5.520835277319798],[102.03212027901539,5.516099716056529],[102.01028849261287,5.517232347041417],[101.99804383796037,5.528598590878528],[101.99583209940725,5.529164945101263],[101.99498043103212,5.532482472153147],[101.98834972167818,5.534185878195798],[101.9866106240341,5.54095919659485],[101.97695673113671,5.542234545704877],[101.97146757109554,5.546814007665092],[101.97026808761379,5.564708384387217],[101.96723586571606,5.568623472396199],[101.96609878283246,5.581376549171874],[101.96306659172967,5.585291630765765],[101.96193399425471,5.589710598201906],[101.95890183387779,5.593621248684802],[101.95743481109011,5.59933779374145],[101.9500014323894,5.600002163002841],[101.94964469682816,5.606592727916302],[101.94584998174724,5.610418635266156],[101.94964469682814,5.614240087861014],[101.95088879222132,5.62012614815433],[101.96054277756744,5.621401424623808],[101.9660453122791,5.625989797170391],[101.96723586571606,5.648044566034328],[101.97026808761379,5.651955157165525],[101.97140068601777,5.665452839000093],[101.96445784117296,5.6672320723064145],[101.95899988574004,5.671784791997416],[101.95776475231678,5.68407854372993],[101.96193399425471,5.689456224876398],[101.96250029149633,5.700002025307829],[101.95612376409572,5.699431222982839],[101.9480438856696,5.692234205382386],[101.93239690261989,5.691097162518813],[101.92304169042787,5.699431252432148],[101.91371332417609,5.700568260959503],[101.91164868528791,5.69251964834527],[101.90612388400676,5.691097184356537],[101.90208397559057,5.687966883256992],[101.89804395939234,5.6910971499467795],[101.88838561791994,5.692376919600842],[101.88693192125528,5.698044442299241],[101.87816090909467,5.707716218336711],[101.8666653463748,5.708331554189257],[101.86567985164537,5.711782941621715],[101.8508043187765,5.713236606915305],[101.84938184471783,5.722993125817386],[101.831857546054,5.741645565140032],[101.82299290718886,5.733949102443793],[101.81803433954353,5.732713916875597],[101.81574241682513,5.740740309277485],[101.81033792035477,5.742283165798296],[101.80215991718462,5.749382037647905],[101.79367424441178,5.7506172333290655],[101.78132705107178,5.761880940136824],[101.77916884729935,5.762500778973702],[101.77881207769532,5.769091300735235],[101.77535180579898,5.7725738334377725],[101.77464733432532,5.785759394495288],[101.76043165231933,5.800001824705348],[101.7565924346464,5.7961847995196125],[101.74340682165607,5.795480255240517],[101.73992425627637,5.792020008917523],[101.73090801448221,5.791315453708881],[101.72742543132752,5.7878551867001775],[101.72257390360713,5.78714621269299],[101.71909133797219,5.783685919308377],[101.71007507184864,5.782981375064517],[101.70242323897783,5.775351870887335],[101.6916679104359,5.77499964183304],[101.69131117898941,5.768409043808586],[101.68714636263746,5.764213013952363],[101.68785536848841,5.760075017946311],[101.6916500173758,5.756249054545851],[101.68714636263746,5.751714202309119],[101.68785536848841,5.718409175120056],[101.69131117898942,5.71492661046794],[101.6916679104359,5.70416682276576],[101.6883502770692,5.703315101980067],[101.68693235030665,5.697790302730851],[101.67858491063797,5.688421726336821],[101.67278801652469,5.686932401813692],[101.66887743022785,5.68390019648077],[101.66445395863846,5.682767581192667],[101.65929928372931,5.678772181503737],[101.6577162538126,5.663490887615563],[101.6522093113101,5.658902437792007],[101.64668451607481,5.657484465232376],[101.64583279727347,5.64583282953655],[101.65318142517573,5.645114877329753],[101.65478218562478,5.639505327687966],[101.66194353861421,5.631256014040978],[101.65895143360233,5.627158149343286],[101.6577162538126,5.622841688624627],[101.65354705557449,5.617134093462828],[101.65501410518489,5.609063118791811],[101.67003232787955,5.607596060925392],[101.6714502843275,5.597839554572681],[101.67438439026176,5.593826369165587],[101.67561959500165,5.589505445004148],[101.68394916507673,5.579905038352927],[101.67978438334131,5.572993410949384],[101.6785492158767,5.568672548073849],[101.67561959500165,5.56465938626569],[101.67438439026175,5.560338499758449],[101.67083500625826,5.554167087013401],[101.67047825954512,5.547576546406817],[101.66285313552223,5.539924730516848],[101.66214864225067,5.53090843509471],[101.65451909517664,5.523256632796201],[101.6550185334556,5.51751777411552],[101.66164925641748,5.515814321961122],[101.6633526139941,5.509183693433373],[101.66666571425563,5.508331955708572],[101.66887743022787,5.508902763877788],[101.67425507803769,5.5130675920804295],[101.6811221361354,5.508902755021085],[101.68554553676859,5.507765665374123],[101.69489626843351,5.499431610835614],[101.70328384881493,5.500733696574039],[101.70513435345916,5.507939610724245],[101.71028913179637,5.511930482494293],[101.71887734682564,5.513067569240895],[101.7238625944484,5.516929148047359],[101.72585135577559,5.509183705368814],[101.72916444922042,5.508332000640181],[101.73030602673282,5.503904072166912],[101.7352912989698,5.507765720383948],[101.74408909652664,5.5079797364170995],[101.74757605903366,5.504519433100441],[101.75000181041551,5.504167204996642],[101.75000181041551,5.470835406198633],[101.74256404322817,5.470171011917835],[101.74110149378004,5.464454445024849],[101.73806931073813,5.460543841037492],[101.73693225391852,5.432585204108915],[101.74110149378004,5.427212043792277],[101.74223407707616,5.418623804845561],[101.74536440890095,5.414583823084167],[101.74223407707616,5.410543892852051],[101.74202003848839,5.3809087290185005],[101.74548033926038,5.377426171135878],[101.74548033926038,5.372574649708017],[101.74202003848839,5.369092139132208],[101.741311098541,5.360044578703891],[101.73575949509537,5.354519792020617],[101.73090801448221,5.353815231029647],[101.72742543132753,5.350354995348022],[101.71424428122323,5.349645963261156],[101.69754942191689,5.332977860937723],[101.69340693948081,5.333686801551789],[101.68921094416571,5.337851620910323],[101.68090804936766,5.337147114370031],[101.67742548853771,5.333686851920921],[101.66867231327453,5.333949951205094],[101.66465915408128,5.336884033560466],[101.65513896512581,5.338266321531086],[101.65320816798706,5.345026364535354],[101.64536457197465,5.346448758534727],[101.63958117029598,5.342225983591161],[101.63549213641986,5.3452136006835556],[101.63117122419467,5.346448768836958],[101.62292193882763,5.353610114502511],[101.61882844373318,5.35061806974811],[101.60496957640923,5.349266934819955],[101.60354715137714,5.339505952884582],[101.5991995473989,5.334070316062756],[101.58529160811733,5.3327682662744955],[101.58137644026405,5.329736065077133],[101.57563758179707,5.3282601145954525],[101.57443367954863,5.310289973829634],[101.57140151531063,5.3063793386400775],[101.57026437922983,5.3019558663691955],[101.56723225150972,5.298045263244652],[101.56609958611963,5.293621794552507],[101.55890264721253,5.285541953901857],[101.55833184813106,5.279165394377276],[101.54673369201035,5.278505476062998],[101.54618525221382,5.272574896002262],[101.54964551162051,5.269092330314467],[101.54999776327642,5.26666655747154],[101.54668468532971,5.265814876093168],[101.54583301368679,5.262501787800355],[101.53839968468615,5.263161689495134],[101.53749890633038,5.2666665741076315],[101.5311223928759,5.267232855344164],[101.5261371706078,5.2710989099860655],[101.52464776508485,5.264240770347755],[101.52047849916865,5.260044800755629],[101.52118757192639,5.255906701221207],[101.52535235741867,5.2517107313451135],[101.52464334242833,5.247545902206397],[101.51075766704685,5.233687005208897],[101.50833198250722,5.233334761763796],[101.50868868699813,5.230909025867092],[101.51285348211117,5.22671298825908],[101.51214446732408,5.201715284548554],[101.49825884809141,5.187851972756227],[101.49337614314355,5.187142942355249],[101.48785131683887,5.181591393152362],[101.48785131683887,5.164241024086113],[101.49165488537702,5.160415095848609],[101.48298194094058,5.1517154193784815],[101.48368650498239,5.1434081132866005],[101.48714672390997,5.139925538520905],[101.48714672390997,5.122575145153108],[101.48368650498239,5.1190926188168815],[101.48298194094058,5.114241068914062],[101.47881273473718,5.1100451008863566],[101.47952169054501,5.105907021812989],[101.48298194094058,5.102424453224586],[101.48368650498239,5.097577465684647],[101.48714672390997,5.094090383017508],[101.48749901976367,5.091664700264856],[101.48418589197837,5.09081746956015],[101.4824468465403,5.084039624339325],[101.47278841379695,5.082764309958953],[101.46726366765576,5.078158031154726],[101.46666608086753,5.0583328907622835],[101.4600755259985,5.057980638407854],[101.45242375764532,5.050351070532868],[101.44779073948828,5.0505651636785736],[101.44280544514429,5.054431138678821],[101.44109760964793,5.047791535826628],[101.43390066948814,5.039711692063522],[101.43248262177153,5.034182419025],[101.42916505532723,5.033335175050644],[101.43001678930469,5.030017597759022],[101.43710228844307,5.028198295264488],[101.44109760964793,5.023043554648865],[101.44251560497186,5.01751870520827],[101.44915077023614,5.01581536855397],[101.45035475281959,5.010076488174674],[101.45381496099888,5.0065894705770715],[101.45416722774452,5.004168191023563],[101.45174150824856,5.00381145513714],[101.44408967672372,4.996186363004262],[101.43924267824175,4.995481873086975],[101.42742600164541,4.983687524489414],[101.4250002307855,4.983335303614637],[101.42565578961087,4.97597774995427],[101.43945669372111,4.963068660557618],[101.44498148251496,4.961650646422767],[101.44639953230524,4.956121396182203],[101.45056879181621,4.950748186596424],[101.44526691055368,4.942414131622865],[101.44943170400117,4.93554259473102],[101.4505687918162,4.926954404315785],[101.45360091513714,4.923043781602493],[101.45478259259464,4.902005700486999],[101.45777913749309,4.8979078278675505],[101.44645299659399,4.885493686423155],[101.44521786609143,4.88117278355683],[101.44228373343218,4.877159650007904],[101.4409594070733,4.859140396920325],[101.43117167962544,4.857717931565491],[101.42715847091294,4.854783820720443],[101.41348684500521,4.85345056371142],[101.41151149655379,4.846552371353873],[101.40416734104569,4.845834421164109],[101.40381507549675,4.843408642012949],[101.39964584175429,4.8392126359664305],[101.40035484874976,4.835074618132983],[101.40797989110094,4.82742280188609],[101.40868887017079,4.818410977757271],[101.41285371406397,4.814214969321651],[101.41214470568457,4.801742826291648],[101.4045196078272,4.794091013144244],[101.40381507549675,4.789243997152208],[101.40035484874976,4.7857569979186065],[101.39964584175429,4.780909940296825],[101.39618558514387,4.777422931154965],[101.39583326092576,4.762498291191408],[101.37992322935307,4.76180270614921],[101.37852308707153,4.7455135791679455],[101.38269231088049,4.739636475717657],[101.38368671182317,4.726740757665661],[101.38748584185304,4.722914844340744],[101.38368671182319,4.719088912152712],[101.38297323269545,4.7142106667872925],[101.37708278543745,4.70834698951441],[101.36838305148397,4.717019934052737],[101.36007574898062,4.716315347452438],[101.35208503157334,4.708346986595498],[101.34825910803971,4.712146143857236],[101.34237312443398,4.711611010039115],[101.34109780872069,4.701957066875475],[101.3337937737082,4.693756782389741],[101.33693299869925,4.689712346593262],[101.33785155312673,4.680910152925782],[101.3663140403792,4.652425399159006],[101.36701856953938,4.6475738906689905],[101.37881291639334,4.6357572599501085],[101.37916518094406,4.633331537488469],[101.38244706781757,4.632560062629841],[101.3838160028544,4.62816784787572],[101.37969583154839,4.623080015952513],[101.37916518094406,4.616667856855359],[101.38248274579657,4.615816125825459],[101.38333443141173,4.6124986016353064],[101.38575573469025,4.6128553201372835],[101.38995175935266,4.617020136535508],[101.39825902257701,4.616311095774061],[101.40174161019685,4.612855288575485],[101.4125014181345,4.612498586062802],[101.41323719569006,4.604967193449073],[101.42420658320073,4.603370841619152],[101.42576720124734,4.592637768269301],[101.4313277164574,4.5910503179565465],[101.4395057353887,4.583951444000744],[101.44490566311974,4.582408549130548],[101.44720210617248,4.574382182595441],[101.47399683774101,4.575666394429103],[101.4756155173838,4.581325036989366],[101.47854957548465,4.585338234258116],[101.47978476563712,4.589659075035688],[101.4827144367295,4.593672280505549],[101.48430629653555,4.5992327732564675],[101.49382650978158,4.600619548229372],[101.50343136735135,4.608949154404383],[101.52299344477011,4.607714007420025],[101.52700662926145,4.604784357764999],[101.53549234831836,4.6035491962308495],[101.54166817350054,4.599999691371254],[101.54526671104837,4.593877383372624],[101.54654200229592,4.584218942964274],[101.56054358216848,4.582765338473733],[101.56862346212532,4.57556833755891],[101.57414823636272,4.574150358277679],[101.57585162383872,4.567519647787407],[101.58137644026405,4.566097208730289],[101.58529160811733,4.563069423853543],[101.58971055955922,4.561932356508283],[101.59375048357947,4.5588021321331995],[101.59925300505436,4.563069439044529],[101.61576059896053,4.561856551706251],[101.61751753541637,4.555016339764645],[101.62083506930718,4.554164631580928],[101.62083506930718,4.545835006671445],[101.6232563869869,4.546187265047505],[101.63507743420452,4.557981589236189],[101.65659257862123,4.55868618635116],[101.66630898188868,4.568380267983723],[101.6670180190664,4.577423308551804],[101.6704782595451,4.580910322194632],[101.67083500625826,4.5999997184156145],[101.69387512119286,4.600566027030239],[101.69779021041144,4.603598192979895],[101.7073996202405,4.604869081830263],[101.72026408328445,4.618620935876865],[101.72174449975935,4.624377610100514],[101.74825836110463,4.62535415674052],[101.75174085639006,4.62881444741293],[101.76666550927358,4.629166704921799],[101.76609921428943,4.660545412338461],[101.76193436731896,4.665918640190616],[101.76609921428943,4.672790080640605],[101.76723180731697,4.67720907706858],[101.77454023838517,4.6854093871692895],[101.77026396597445,4.690920834381334],[101.77140103720983,4.6980420172170785],[101.77443322948272,4.7019571122734805],[101.77556591251597,4.710545309207772],[101.77869619738064,4.714585266122418],[101.77443322948274,4.720087763266127],[101.77556591251597,4.743877078297148],[101.77859805128766,4.74778770325574],[101.77987334912342,4.757446110451953],[101.78333359619323,4.75833346832659],[101.78454653092923,4.753597913472646],[101.79387491208377,4.754735029423904],[101.7977900080188,4.757767173356134],[101.82083463146598,4.758333489524444],[101.82148123117658,4.730049430611019],[101.83117087414088,4.721452301938593],[101.84069552941425,4.720065448253583],[101.84228298293552,4.71450500938552],[101.84521700770982,4.7104917965809445],[101.84645222778198,4.7061709344644],[101.84938184471781,4.702162174282209],[101.85070619250583,4.684156358837704],[101.85617304310827,4.679781968667709],[101.86465869492525,4.678551289918015],[101.86867186179157,4.675617149215908],[101.88669113426911,4.674292794754347],[101.88811802485273,4.664505098350043],[101.89228280656447,4.658801909507428],[101.89104766173402,4.6478413895539346],[101.88688284139164,4.642133786307635],[101.88811802485273,4.6353381099242625],[101.89104766173402,4.631324880571866],[101.89238540960228,4.617653303957154],[101.89907405322128,4.615740384782639],[101.90000154653875,4.612498619205057],[101.91184043737503,4.613399331507361],[101.91306668402724,4.627209134544264],[101.91609893712726,4.631124227631827],[101.91723601075078,4.635543215030958],[101.92443294167822,4.643623094392033],[101.925703817058,4.653245837963918],[101.93112159471666,4.657767398969648],[101.93749811234292,4.658333674763011],[101.93785489445858,4.660759406051544],[101.94131508107768,4.664241990928975],[101.94201961710766,4.669089065659381],[101.94547993848992,4.672576045490576],[101.9461844148839,4.689926411968693],[101.94964469682816,4.693408947356656],[101.9503537284258,4.706590043674264],[101.95381397100527,4.710077114021071],[101.95451850225155,4.722544770597896],[101.9503537284258,4.726740748201382],[101.9500014323894,4.7583334843460685],[101.95220874378354,4.758899810123947],[101.95758641499549,4.763069077159574],[101.96993810790572,4.76182498891284],[101.97175296531374,4.754748339972978],[101.98112149315412,4.746400920040649],[101.98333319044238,4.745834657523013],[101.98411360566047,4.738187296058642],[102.02297019585922,4.736858474246306],[102.02703243734781,4.733977878913533],[102.03129978091933,4.732689203924974],[102.03536651846939,4.72980860510741],[102.04380311867449,4.728524386106265],[102.04874820936834,4.7250150509800894],[102.05064335572399,4.731302394873142],[102.0596686117756,4.741589555946992],[102.0645869697118,4.738102515831704],[102.07286309596157,4.7451925227857545],[102.0771348609508,4.746476751999852],[102.08628943288248,4.754315873913476],[102.08749779040494,4.7583335244325005],[102.09409281686114,4.758685773921486],[102.09757536969394,4.762145989488036],[102.11666477430546,4.762498265561025],[102.11723554503997,4.751956979259826],[102.12026778736548,4.7480418882661395],[102.12140038679955,4.743622886536847],[102.12443257037651,4.739712314757447],[102.12561867521545,4.717657558498959],[102.13112123632328,4.713069132804511],[102.13554460983057,4.711932087595777],[102.13945527744495,4.708899932422482],[102.14387872629248,4.707767264092915],[102.14778934279899,4.704735125664303],[102.15350587540064,4.7032680841455665],[102.15416581996865,4.695834699682743],[102.15793826675534,4.694867113543125],[102.16193357449283,4.689712355813655],[102.16306625623074,4.685288953024719],[102.17556509303245,4.671822458318591],[102.17130221514545,4.6645853394897845],[102.17443245684395,4.66054540313427],[102.17585041344192,4.655016079848912],[102.18262380590093,4.653277073680074],[102.18403733061861,4.6425841299127395],[102.18945521038142,4.6380671113729],[102.1980433671509,4.63693442913169],[102.2019539925023,4.633902299082245],[102.21054225068748,4.632765231288037],[102.21445733441894,4.6297329842306665],[102.21887629577535,4.628600408288011],[102.22499868156646,4.625001875225474],[102.22585031521471,4.6283150276178935],[102.2357585020529,4.629518998834773],[102.24547488471721,4.639213090441331],[102.2461927428016,4.64412253729501],[102.25174438226541,4.6496473328765076],[102.25659138012612,4.650351926423],[102.2649522090993,4.658685965491541],[102.28158911643831,4.657981416257199],[102.28507612265886,4.654521162454813],[102.28992317725819,4.6538121546622895],[102.29757495674771,4.646187064465244],[102.30242648606878,4.645478086915655],[102.31007388211101,4.637853042245958],[102.33554428456995,4.638067100600235],[102.3449128371775,4.646414543358005],[102.34640218517826,4.652211340068773],[102.3494343361826,4.656121972625216],[102.35085234518544,4.661651263651692],[102.35637712324947,4.663069225343507],[102.36028781357825,4.6661014746055],[102.3658170765352,4.667519418020852],[102.36751603596866,4.674150157105284],[102.37439193580543,4.675911467918874],[102.37499838823157,4.691665448115182],[102.37083352975674,4.691665466388686],[102.37048127903134,4.694091209340221],[102.36495650630772,4.699642817860161],[102.36249946862156,4.699999531195249],[102.36335119248258,4.703317076611204],[102.36666873814207,4.704168780974666],[102.3675561547264,4.707624571997858],[102.3772100704847,4.70889991719753],[102.3811206989134,4.711932105136753],[102.3855441726478,4.7130691864843755],[102.38958412506037,4.716199465669888],[102.39362404745943,4.713069182188363],[102.44825695819475,4.712146132779157],[102.45590875879525,4.704521034717518],[102.45833450094356,4.704168823817613],[102.45918616032088,4.700851206949053],[102.46249934745985,4.699999562983154],[102.46346694753962,4.696231570214778],[102.46862167152265,4.692231795533065],[102.47304506651273,4.691099133053086],[102.4769556826154,4.688066953265508],[102.48248050207397,4.686648975545564],[102.48418392618076,4.6800182757311894],[102.48970874607598,4.678600330852389],[102.49362387162562,4.675568096712387],[102.49914862368689,4.674150090793744],[102.50085203417855,4.667519427021362],[102.50416512045868,4.666667759370559],[102.51466183249185,4.667283086404072],[102.52283982404002,4.674382003567362],[102.52823985919201,4.675924870801436],[102.52978264808725,4.681324848253327],[102.53688153017583,4.689507253255364],[102.53811674553025,4.693828163704974],[102.54521561815464,4.702006128436277],[102.54678078368387,4.712765948236505],[102.55200685246388,4.708948925581189],[102.55632771338219,4.707713804504245],[102.56874183341786,4.696387654268511],[102.57452974504825,4.700619368251224],[102.5854946596148,4.699384159976015],[102.58950789886005,4.696450071150165],[102.60416497756201,4.695834691201412],[102.60381270593027,4.710759375244758],[102.60001354823522,4.714585221399241],[102.60381270593027,4.718406699587391],[102.60452171718273,4.722544730212581],[102.60035240802588,4.7267407327386035],[102.59964788906892,4.76838427955296],[102.61214673125652,4.780909895905505],[102.61249902826381,4.78333119821511],[102.61862138914911,4.779732727704864],[102.62827973960792,4.778457407977344],[102.62916708955453,4.775001642035631],[102.6315929036431,4.7746449081252464],[102.63507542407797,4.771184653364015],[102.63992244359534,4.77048008837827],[102.64340950704546,4.767019814204711],[102.65000007987167,4.766667528124845],[102.65035231659172,4.773258065755239],[102.6579818329136,4.780909903102376],[102.6579818329136,4.78992618931217],[102.6545215835996,4.793408802605251],[102.65381261716139,4.802425104679966],[102.65035231659172,4.805907623982247],[102.64964775659784,4.810759151985291],[102.64618749233229,4.814241719124444],[102.64547848908266,4.835047856106263],[102.64964775659784,4.839243864942689],[102.64964775659784,4.848255691780522],[102.64618749233227,4.851742756754644],[102.64583526822972,4.854168481450839],[102.6425176674648,4.855015718863457],[102.64166596223698,4.858333298616657],[102.62695542908888,4.858899627299369],[102.62304478469005,4.861931814457811],[102.61862138914911,4.863068850744258],[102.60637664080764,4.874430669789206],[102.59362365665288,4.875567686812019],[102.58137892899694,4.886933931343771],[102.57584968985051,4.888351981644595],[102.57443167359524,4.893876780844663],[102.56991461045995,4.899294560158606],[102.56028740487945,4.900565430041835],[102.55637674138612,4.90359762230136],[102.53258748554532,4.904734680087514],[102.52708492558048,4.9004673645817896],[102.5230449815113,4.903597621536714],[102.50612265179889,4.904734727818694],[102.50359884367373,4.907120316298854],[102.51185708404225,4.909238398758173],[102.5130655119109,4.925745994118609],[102.50890074290389,4.931123615326817],[102.50833444265268,4.9375001836459536],[102.51471093020494,4.938066466668779],[102.51958474886138,4.941843364254302],[102.52139961843635,4.9465788737049134],[102.51713669853427,4.9520814114105],[102.5202669845072,4.956121412474039],[102.52139961843633,4.9612850419833565],[102.51445677756494,4.963068688236478],[102.509038927242,4.967585734212343],[102.50762541173931,4.9782786609600915],[102.5007405495339,4.980044466512906],[102.49943406961954,4.9882447479932726],[102.5036969421091,4.993751739678255],[102.50056667220886,4.997791659846754],[102.50000032575653,5.008333019350352],[102.515888143892,5.009033092204964],[102.51666846706692,5.025001090428495],[102.5188757357274,5.025567415864648],[102.52139961843633,5.027953026588015],[102.51666846706692,5.029165889351531],[102.51666846706694,5.033335199334395],[102.51311452142178,5.034244861020249],[102.51193287295824,5.060544597031223],[102.50473595060085,5.0686245150629325],[102.50416512045868,5.070831753609788],[102.49943406961954,5.072049074447218],[102.50195787323852,5.074434673026765],[102.50416512045868,5.0750009801006355],[102.50416512045868,5.087499896006775],[102.51159847443566,5.088159782957246],[102.5130655119109,5.093876407667335],[102.5202669845072,5.10195629498358],[102.52083325630959,5.104167968235074],[102.5283156589555,5.10501520731769],[102.52916731563388,5.108332812163046],[102.5286010026257,5.110544499162933],[102.5246056432323,5.115699210519301],[102.51751566110605,5.117518552870474],[102.51581681582775,5.124149221496336],[102.51028749463217,5.125567200701388],[102.50637687342602,5.128599389686352],[102.50195787323852,5.129731985942371],[102.4980428118309,5.132764189557138],[102.49362387162562,5.133901262294406],[102.48846915349598,5.137896620338013],[102.48693068445918,5.1438763066424125],[102.46723490147725,5.164455017661421],[102.46666854567383,5.166666743042664],[102.45174397894142,5.16701905302305],[102.4399228652115,5.178813308024669],[102.43507580560757,5.1795178760069795],[102.43159332027673,5.182978170619518],[102.41666864704091,5.183334853697092],[102.4173285798213,5.194933026959003],[102.4243740197983,5.196743358751978],[102.42556901345108,5.217603062549981],[102.41723501551184,5.226958282683399],[102.41609790928896,5.267411227574222],[102.42036526463238,5.272918201285246],[102.41723501551182,5.276958135186116],[102.41609790928896,5.296578227448196],[102.42026715063969,5.301955852865242],[102.42083344968746,5.3166664200767375],[102.42415102567288,5.317518162605055],[102.42556901345108,5.3230429694568935],[102.42860119703367,5.326958054146629],[102.42860119703367,5.348045182171331],[102.4254708949457,5.352085080034416],[102.42956439777494,5.357364644823463],[102.4366498681309,5.359184016088734],[102.43750162715915,5.362501555346515],[102.4366498681309,5.365814691467314],[102.43112063055814,5.367232640933097],[102.42148894699886,5.375972501450291],[102.4202671506397,5.389710952354477],[102.41570546863953,5.395177855211901],[102.40195805218283,5.396399598272674],[102.39679892954976,5.400394959013178],[102.39498403832721,5.4074805250646705],[102.39166653219203,5.4083321848521875],[102.39201876178686,5.427426081798221],[102.39547904550332,5.430908629705771],[102.39583128700889,5.437499142954592]]]},"properties":{"name":"Sungai Kelantan above Kuala Krai","areaKm2":11502,"polygons":37,"gauge":[102.199,5.531],"source":"HydroBASINS v1 level 9 (WWF/HydroSHEDS/v1/Basins/hybas_9), traced upstream from the Kuala Krai gauge; dissolved and simplified to 150 m","licence":"HydroSHEDS licence (free for any use with attribution)"}}]}